NORAD_CAT_ID,OBJECT_NAME,OBJECT_TYPE,EPOCH,MEAN_MOTION,ECCENTRICITY,INCLINATION,RA_OF_ASC_NODE,ARG_OF_PERICENTER,MEAN_ANOMALY,BSTAR,MEAN_MOTION_DOT,MEAN_MOTION_DDOT,TLE_LINE0,TLE_LINE1,TLE_LINE2,SEMIMAJOR_AXIS,PERIOD,APOGEE,PERIGEE,DECAYED
56469.0,STARLINK-5518,PAYLOAD,2024-03-26 19:43:34,14.98330333,0.0002946,69.9985,122.0531,271.7217,88.3605,-0.0001666,-2.08e-05,0.0,0 STARLINK-5518,1 56469U 23064X   24086.82192769 -.00002080  00000-0 -16660-3 0  9993,2 56469  69.9985 122.0531 0002946 271.7217  88.3605 14.98330333 49314,6950.192,96.107,574.104,570.009,0.0
56469.0,STARLINK-5518,PAYLOAD,2024-03-27 11:44:55,14.98326117,0.0002985,69.9984,120.3696,269.0656,91.0161,7.3034e-05,7.78e-06,0.0,0 STARLINK-5518,1 56469U 23064X   24087.48952769  .00000778  00000-0  73034-4 0  9999,2 56469  69.9984 120.3696 0002985 269.0656  91.0161 14.98326117 49050,6950.205,96.107,574.145,569.995,0.0
56469.0,STARLINK-5518,PAYLOAD,2024-03-27 19:45:35,14.98329487,0.0003009,69.9983,119.5278,268.9764,91.105,0.00012185,1.361e-05,0.0,0 STARLINK-5518,1 56469U 23064X   24087.82332490  .00001361  00000-0  12185-3 0  9998,2 56469  69.9983 119.5278 0003009 268.9764  91.1050 14.98329487 49467,6950.194,96.107,574.151,569.968,0.0
56469.0,STARLINK-5518,PAYLOAD,2024-03-28 11:46:55,14.98335518,0.0003075,69.9983,117.8445,269.466,90.6146,0.00021509,2.475e-05,0.0,0 STARLINK-5518,1 56469U 23064X   24088.49091851  .00002475  00000-0  21509-3 0  9992,2 56469  69.9983 117.8445 0003075 269.4660  90.6146 14.98335518 49202,6950.176,96.107,574.178,569.904,0.0
56469.0,STARLINK-5518,PAYLOAD,2024-03-28 19:47:35,14.98332716,0.0003044,69.9983,117.0026,269.6294,90.4516,0.00012173,1.36e-05,0.0,0 STARLINK-5518,1 56469U 23064X   24088.82472163  .00001360  00000-0  12173-3 0  9997,2 56469  69.9983 117.0026 0003044 269.6294  90.4516 14.98332716 49611,6950.184,96.107,574.165,569.934,0.0
56469.0,STARLINK-5518,PAYLOAD,2024-03-29 11:48:56,14.98333263,0.0002985,69.9985,115.3195,269.3032,90.7785,1.895e-05,1.33e-06,0.0,0 STARLINK-5518,1 56469U 23064X   24089.49232273  .00000133  00000-0  18950-4 0  9994,2 56469  69.9985 115.3195 0002985 269.3032  90.7785 14.98333263 49351,6950.183,96.107,574.122,569.973,0.0
56469.0,STARLINK-5518,PAYLOAD,2024-03-30 05:26:25,14.98338598,0.0002887,69.9986,113.4676,269.7187,90.3641,-5.6276e-05,-7.65e-06,0.0,0 STARLINK-5518,1 56469U 23064X   24090.22667858 -.00000765  00000-0 -56276-4 0  9994,2 56469  69.9986 113.4676 0002887 269.7187  90.3641 14.98338598 49826,6950.166,96.106,574.038,570.025,0.0
56469.0,STARLINK-5518,PAYLOAD,2024-03-30 11:50:57,14.98337485,0.0002899,69.9985,112.7947,269.7912,90.2914,-3.6401e-05,-5.27e-06,0.0,0 STARLINK-5518,1 56469U 23064X   24090.49371728 -.00000527  00000-0 -36401-4 0  9995,2 56469  69.9985 112.7947 0002899 269.7912  90.2914 14.98337485 49508,6950.17,96.107,574.05,570.02,0.0
56469.0,STARLINK-5518,PAYLOAD,2024-03-30 18:15:29,14.98334209,0.0002864,69.9985,112.1214,270.1639,89.9192,-5.1415e-05,-7.06e-06,0.0,0 STARLINK-5518,1 56469U 23064X   24090.76075862 -.00000706  00000-0 -51415-4 0  9996,2 56469  69.9985 112.1214 0002864 270.1639  89.9192 14.98334209 49541,6950.18,96.107,574.035,570.054,0.0
56469.0,STARLINK-5518,PAYLOAD,2024-03-31 05:28:25,14.98331054,0.0002897,69.9984,110.9429,271.7608,88.3219,1.1753e-05,4.7e-07,0.0,0 STARLINK-5518,1 56469U 23064X   24091.22807804  .00000047  00000-0  11753-4 0  9994,2 56469  69.9984 110.9429 0002897 271.7608  88.3219 14.98331054 49978,6950.19,96.107,574.068,570.041,0.0
56469.0,STARLINK-5518,PAYLOAD,2024-03-31 10:16:50,14.98330927,0.0002887,69.9984,110.4379,271.5584,88.5245,1.3909e-05,7.3e-07,0.0,0 STARLINK-5518,1 56469U 23064X   24091.42835787  .00000073  00000-0  13909-4 0  9991,2 56469  69.9984 110.4379 0002887 271.5584  88.5245 14.98330927 49640,6950.19,96.107,574.062,570.049,0.0
56469.0,STARLINK-5518,PAYLOAD,2024-03-31 18:17:30,14.98330851,0.000287,69.9985,109.5962,271.9786,88.1044,-5.9142e-06,-1.64e-06,0.0,0 STARLINK-5518,1 56469U 23064X   24091.76215804 -.00000164  00000-0 -59142-5 0  9993,2 56469  69.9985 109.5962 0002870 271.9786  88.1044 14.98330851 49692,6950.19,96.107,574.05,570.061,0.0
56469.0,STARLINK-5518,PAYLOAD,2024-04-01 10:18:51,14.9833079,0.0002925,69.9983,107.9129,270.982,89.1004,-1.7391e-05,-3.01e-06,0.0,0 STARLINK-5518,1 56469U 23064X   24092.42975751 -.00000301  00000-0 -17391-4 0  9993,2 56469  69.9983 107.9129 0002925 270.9820  89.1004 14.98330790 50158,6950.19,96.107,574.088,570.023,0.0
56469.0,STARLINK-5518,PAYLOAD,2024-04-02 10:20:51,14.98331179,0.0002983,69.9982,105.3878,271.0146,89.0671,1.4481e-05,8e-07,0.0,0 STARLINK-5518,1 56469U 23064X   24093.43115537  .00000080  00000-0  14481-4 0  9992,2 56469  69.9982 105.3878 0002983 271.0146  89.0671 14.98331179 50305,6950.189,96.107,574.127,569.981,0.0
56469.0,STARLINK-5518,PAYLOAD,2024-04-02 18:21:32,14.9832936,0.0002993,69.9982,104.546,271.2136,88.868,1.0007e-06,-8.1e-07,0.0,0 STARLINK-5518,1 56469U 23064X   24093.76495656 -.00000081  00000-0  10007-5 0  9994,2 56469  69.9982 104.5460 0002993 271.2136  88.8680 14.98329360 49994,6950.195,96.107,574.14,569.98,0.0
56469.0,STARLINK-5518,PAYLOAD,2024-04-03 10:22:52,14.98328219,0.0002997,69.9981,102.8622,270.3903,89.6913,-1.6774e-06,-1.13e-06,0.0,0 STARLINK-5518,1 56469U 23064X   24094.43255760 -.00000113  00000-0 -16774-5 0  9993,2 56469  69.9981 102.8622 0002997 270.3903  89.6913 14.98328219 50453,6950.198,96.107,574.146,569.98,0.0
56469.0,STARLINK-5518,PAYLOAD,2024-04-03 23:11:57,14.9833044,0.0003,69.9981,101.5154,270.4095,89.6721,7.4081e-06,-5e-08,0.0,0 STARLINK-5518,1 56469U 23064X   24094.96663601 -.00000005  00000-0  74081-5 0  9992,2 56469  69.9981 101.5154 0003000 270.4095  89.6721 14.98330440 50173,6950.192,96.107,574.142,569.971,0.0
56469.0,STARLINK-5518,PAYLOAD,2024-04-04 10:24:53,14.98330139,0.0003008,69.9981,100.3372,270.5725,89.509,3.3803e-06,-5.3e-07,0.0,0 STARLINK-5518,1 56469U 23064X   24095.43395621 -.00000053  00000-0  33803-5 0  9999,2 56469  69.9981 100.3372 0003008 270.5725  89.5090 14.98330139 50602,6950.192,96.107,574.148,569.967,0.0
56469.0,STARLINK-5518,PAYLOAD,2024-04-05 10:26:54,14.98331993,0.0003041,69.9981,97.8122,270.6212,89.4599,4.842e-05,4.85e-06,0.0,0 STARLINK-5518,1 56469U 23064X   24096.43535311  .00000485  00000-0  48420-4 0  9990,2 56469  69.9981  97.8122 0003041 270.6212  89.4599 14.98331993 50752,6950.187,96.107,574.165,569.938,0.0
56469.0,STARLINK-5518,PAYLOAD,2024-04-05 16:51:26,14.98330098,0.0003028,69.9981,97.1388,270.7251,89.3561,2.329e-05,1.85e-06,0.0,0 STARLINK-5518,1 56469U 23064X   24096.70239466  .00000185  00000-0  23290-4 0  9997,2 56469  69.9981  97.1388 0003028 270.7251  89.3561 14.98330098 50436,6950.193,96.107,574.162,569.953,0.0
56469.0,STARLINK-5518,PAYLOAD,2024-04-06 10:28:55,14.98329231,0.0002947,69.9984,95.2875,269.8114,90.2708,1.3282e-05,6.5e-07,0.0,0 STARLINK-5518,1 56469U 23064X   24097.43675543  .00000065  00000-0  13282-4 0  9995,2 56469  69.9984  95.2875 0002947 269.8114  90.2708 14.98329231 50908,6950.195,96.107,574.108,570.012,0.0
56469.0,STARLINK-5518,PAYLOAD,2024-04-06 23:18:00,14.98329709,0.000281,69.9986,93.9403,265.8714,94.2124,-1.8122e-05,-3.09e-06,0.0,0 STARLINK-5518,1 56469U 23064X   24097.97083577 -.00000309  00000-0 -18122-4 0  9995,2 56469  69.9986  93.9403 0002810 265.8714  94.2124 14.98329709 50628,6950.194,96.107,574.012,570.106,0.0
56469.0,STARLINK-5518,PAYLOAD,2024-04-07 10:30:56,14.98319437,0.0003088,69.9985,92.7625,269.8875,90.193,0.00015476,1.754e-05,0.0,0 STARLINK-5518,1 56469U 23064X   24098.43815835  .00001754  00000-0  15476-3 0  9998,2 56469  69.9985  92.7625 0003088 269.8875  90.1930 14.98319437 51055,6950.226,96.108,574.237,569.944,0.0
56469.0,STARLINK-5518,PAYLOAD,2024-04-07 16:55:28,14.98329565,0.0002986,69.9985,92.0892,269.0652,91.0164,1.8631e-05,1.29e-06,0.0,0 STARLINK-5518,1 56469U 23064X   24098.70519485  .00000129  00000-0  18631-4 0  9992,2 56469  69.9985  92.0892 0002986 269.0652  91.0164 14.98329565 51091,6950.194,96.107,574.135,569.984,0.0
56469.0,STARLINK-5518,PAYLOAD,2024-04-08 08:56:49,14.98330007,0.0002743,69.9989,90.4061,262.3595,97.7252,2.3104e-05,1.83e-06,0.0,0 STARLINK-5518,1 56469U 23064X   24099.37279413  .00000183  00000-0  23104-4 0  9991,2 56469  69.9989  90.4061 0002743 262.3595  97.7252 14.98330007 50833,6950.193,96.107,573.964,570.151,0.0
56469.0,STARLINK-5518,PAYLOAD,2024-04-08 16:57:29,14.98329476,0.0002883,69.9993,89.564,269.7944,90.2885,3.331e-05,3.04e-06,0.0,0 STARLINK-5518,1 56469U 23064X   24099.70659438  .00000304  00000-0  33310-4 0  9992,2 56469  69.9993  89.5640 0002883 269.7944  90.2885 14.98329476 51248,6950.195,96.107,574.063,570.056,0.0
56469.0,STARLINK-5518,PAYLOAD,2024-04-09 08:58:50,14.98331091,0.000302,69.9986,87.8805,269.4512,90.6301,3.4389e-05,3.17e-06,0.0,0 STARLINK-5518,1 56469U 23064X   24100.37419261  .00000317  00000-0  34389-4 0  9997,2 56469  69.9986  87.8805 0003020 269.4512  90.6301 14.98331091 50989,6950.19,96.107,574.153,569.956,0.0
56469.0,STARLINK-5518,PAYLOAD,2024-04-10 05:48:34,14.98332192,0.0003006,69.9987,85.6929,269.4571,90.6244,1.8107e-05,1.23e-06,0.0,0 STARLINK-5518,1 56469U 23064X   24101.24207138  .00000123  00000-0  18107-4 0  9997,2 56469  69.9987  85.6929 0003006 269.4571  90.6244 14.98332192 51476,6950.186,96.107,574.14,569.962,0.0
56469.0,STARLINK-5518,PAYLOAD,2024-04-10 09:00:51,14.98329943,0.0002915,69.9992,85.3561,269.2522,90.8303,5.836e-05,6.03e-06,0.0,0 STARLINK-5518,1 56469U 23064X   24101.37559153  .00000603  00000-0  58360-4 0  9996,2 56469  69.9992  85.3561 0002915 269.2522  90.8303 14.98329943 51134,6950.193,96.107,574.084,570.032,0.0
56469.0,STARLINK-5518,PAYLOAD,2024-04-10 21:49:55,14.98330185,0.0002967,69.9991,84.0099,268.8925,91.1894,1.8714e-05,1.3e-06,0.0,0 STARLINK-5518,1 56469U 23064X   24101.90967158  .00000130  00000-0  18714-4 0  9997,2 56469  69.9991  84.0099 0002967 268.8925  91.1894 14.98330185 51212,6950.192,96.107,574.119,569.995,0.0
